[
	{
		"id": "1",
		"place_name": "Worser Bay",
		"place_type": "Beach",
		"cost": false,
		"lat": -41.313202,
		"long": 174.82664
	},
	{
		"id": "2",
		"place_name": "Mt Vicoria",
		"place_type": "Walks",
		"cost": false,
		"lat": -41.296057,
		"long": 174.79431
	},
	{
		"id": "3",
		"place_name": "Hataitai Bay",
		"place_type": "Beach",
		"cost": false,
		"lat": -41.304429,
		"long": 174.801011
	},
	{
		"id": "4",
		"place_name": "Park Road Post",
		"place_type": "Movie",
		"cost": false,
		"lat": -41.307945,
		"long": 174.821859
	},
	{
		"id": "5",
		"place_name": "Roxy Cinema",
		"place_type": "Movie",
		"cost": 17,
		"lat": -41.31585,
		"long": 174.816259
	},
	{
		"id": "6",
		"place_name": "The Embassy",
		"place_type": "Movie",
		"cost": 10,
		"lat": -41.29432,
		"long": 174.784058
	},
	{
		"id": "7",
		"place_name": "Lyall Bay",
		"place_type": "Beach",
		"cost": false,
		"lat": -41.327978,
		"long": 174.800044
	},
	{
		"id": "8",
		"place_name": "SPCA",
		"place_type": "Animal",
		"cost": false,
		"lat": -41.306978,
		"long": 174.786988
	},
	{
		"id": "9",
		"place_name": "Wellington Zoo",
		"place_type": "Animal",
		"cost": 12,
		"lat": -41.319543,
		"long": 174.784643
	},
	{
		"id": "10",
		"place_name": "Zealandia",
		"place_type": "Animal",
		"cost": 19.5,
		"lat": -41.290157,
		"long": 174.753494
	}
]
