[
	{
		"place_name": "Busy Bee Quilt Shop",
		"lat": -41.324991,
		"long": 174.801944,
		"stock": "sewing"
	},
	{
		"place_name": "The Fabric Shore",
		"lat": -41.29359,
		"long": 174.774504,
		"stock": "sewing"
	},
	{
		"place_name": "Fabrics Direct",
		"lat": -41.2927,
		"long": 174.773488,
		"stock": "sewing"
	},
	{
		"place_name": "Holland Road Yarn Company",
		"lat": -41.286756,
		"long": 174.775872,
		"stock": "knitting"
	},
	{
		"place_name": "Made Marion Craft",
		"lat": -41.295659,
		"long": 174.779736,
		"stock": "sewing"
	},
	{
		"place_name": "Minerva",
		"lat": -41.29569,
		"long": 174.774525,
		"stock": "sewing"
	},
	{
		"place_name": "Nancy's Stitch Studio",
		"lat": -41.269583,
		"long": 174.780802,
		"stock": "knitting"
	},
	{
		"place_name": "The Sewing Depot",
		"lat": -41.226024,
		"long": 174.881796,
		"stock": "sewing"
	},
	{
		"place_name": "Stitchbird Fabrics",
		"lat": -41.317795,
		"long": 174.794084,
		"stock": "sewing"
	},
	{
		"place_name": "Wellington Sewing Centre",
		"lat": -41.318251,
		"long": 174.794439,
		"stock": "sewing"
	}
]
